NORAD_CAT_ID,OBJECT_NAME,OBJECT_TYPE,EPOCH,MEAN_MOTION,ECCENTRICITY,INCLINATION,RA_OF_ASC_NODE,ARG_OF_PERICENTER,MEAN_ANOMALY,BSTAR,MEAN_MOTION_DOT,MEAN_MOTION_DDOT,TLE_LINE0,TLE_LINE1,TLE_LINE2,SEMIMAJOR_AXIS,PERIOD,APOGEE,PERIGEE,DECAYED
54785.0,STARLINK-5440,PAYLOAD,2024-01-07 03:14:00,15.08874392,0.0001918,53.2183,306.9114,110.014,250.1059,-0.00034221,-5.736e-05,0.0,0 STARLINK-5440,1 54785U 22175AD  24007.13472614 -.00005736  00000-0 -34221-3 0  9995,2 54785  53.2183 306.9114 0001918 110.0140 250.1059 15.08874392 58881,6917.775,95.435,540.967,538.313,0.0
54785.0,STARLINK-5440,PAYLOAD,2024-01-07 04:49:22,15.08887053,0.000222,53.2185,306.6116,121.3205,238.8005,-0.00044469,-7.368e-05,0.0,0 STARLINK-5440,1 54785U 22175AD  24007.20095840 -.00007368  00000-0 -44469-3 0  9993,2 54785  53.2185 306.6116 0002220 121.3205 238.8005 15.08887053 58899,6917.737,95.435,541.137,538.066,0.0
54785.0,STARLINK-5440,PAYLOAD,2024-01-07 19:07:52,15.08836306,0.0001631,53.2182,303.9352,113.2228,246.8936,2.2254e-05,6.6e-07,0.0,0 STARLINK-5440,1 54785U 22175AD  24007.79714039  .00000066  00000-0  22254-4 0  9990,2 54785  53.2182 303.9352 0001631 113.2228 246.8936 15.08836306 58985,6917.892,95.438,540.885,538.628,0.0
54785.0,STARLINK-5440,PAYLOAD,2024-01-08 04:40:11,15.08841177,0.0001618,53.2183,302.1516,100.9051,259.2124,9.2236e-05,1.18e-05,0.0,0 STARLINK-5440,1 54785U 22175AD  24008.19457684  .00001180  00000-0  92236-4 0  9990,2 54785  53.2183 302.1516 0001618 100.9051 259.2124 15.08841177 61209,6917.877,95.437,540.861,538.622,0.0
54785.0,STARLINK-5440,PAYLOAD,2024-01-09 02:55:35,15.08845052,0.0001529,53.2179,297.9883,113.5965,246.5188,8.2124e-05,1.019e-05,0.0,0 STARLINK-5440,1 54785U 22175AD  24009.12193383  .00001019  00000-0  82124-4 0  9993,2 54785  53.2179 297.9883 0001529 113.5965 246.5188 15.08845052 61347,6917.865,95.437,540.788,538.672,0.0
54785.0,STARLINK-5440,PAYLOAD,2024-01-09 18:49:24,15.08866265,0.0001609,53.2173,295.0147,71.7398,288.377,0.0002566,3.801e-05,0.0,0 STARLINK-5440,1 54785U 22175AD  24009.78431056  .00003801  00000-0  25660-3 0  9999,2 54785  53.2173 295.0147 0001609  71.7398 288.3770 15.08866265 59287,6917.8,95.436,540.778,538.552,0.0
54785.0,STARLINK-5440,PAYLOAD,2024-01-10 01:10:59,15.08830447,0.0001448,53.2185,293.8236,88.6183,271.4975,-5.6118e-05,-1.181e-05,0.0,0 STARLINK-5440,1 54785U 22175AD  24010.04929845 -.00001181  00000-0 -56118-4 0  9992,2 54785  53.2185 293.8236 0001448  88.6183 271.4975 15.08830447 59323,6917.91,95.438,540.776,538.773,0.0
54785.0,STARLINK-5440,PAYLOAD,2024-01-10 04:21:45,15.08827872,0.0001478,53.2183,293.2298,90.2202,269.896,-8.123e-05,-1.58e-05,0.0,0 STARLINK-5440,1 54785U 22175AD  24010.18178117 -.00001580  00000-0 -81230-4 0  9991,2 54785  53.2183 293.2298 0001478  90.2202 269.8960 15.08827872 61503,6917.917,95.438,540.805,538.76,0.0
54785.0,STARLINK-5440,PAYLOAD,2024-01-10 23:26:23,15.08838479,0.0001484,53.2188,289.6626,75.0085,285.1071,-6.2081e-05,-1.276e-05,0.0,0 STARLINK-5440,1 54785U 22175AD  24010.97665912 -.00001276  00000-0 -62081-4 0  9997,2 54785  53.2188 289.6626 0001484  75.0085 285.1071 15.08838479 59460,6917.885,95.438,540.777,538.723,0.0
54785.0,STARLINK-5440,PAYLOAD,2024-01-11 04:12:31,15.08847355,0.0001382,53.2185,288.7684,100.5849,259.5299,-3.5543e-06,-3.45e-06,0.0,0 STARLINK-5440,1 54785U 22175AD  24011.17537014 -.00000345  00000-0 -35543-5 0  9991,2 54785  53.2185 288.7684 0001382 100.5849 259.5299 15.08847355 59493,6917.858,95.437,540.679,538.767,0.0
54785.0,STARLINK-5440,PAYLOAD,2024-01-11 21:41:47,15.08826704,0.0001439,53.2187,285.495,116.7171,243.3969,0.00010762,1.425e-05,0.0,0 STARLINK-5440,1 54785U 22175AD  24011.90401841  .00001425  00000-0  10762-3 0  9992,2 54785  53.2187 285.4950 0001439 116.7171 243.3969 15.08826704 61768,6917.921,95.438,540.782,538.791,0.0
54785.0,STARLINK-5440,PAYLOAD,2024-01-12 04:03:19,15.08833767,0.000145,53.2185,284.308,103.8095,256.3059,0.00021546,3.142e-05,0.0,0 STARLINK-5440,1 54785U 22175AD  24012.16897477  .00003142  00000-0  21546-3 0  9995,2 54785  53.2185 284.3080 0001450 103.8095 256.3059 15.08833767 59648,6917.899,95.438,540.768,538.761,0.0
54785.0,STARLINK-5440,PAYLOAD,2024-01-12 21:32:34,15.08834276,0.0001723,53.219,281.0335,121.2951,238.821,1.1682e-05,-1.02e-06,0.0,0 STARLINK-5440,1 54785U 22175AD  24012.89762269 -.00000102  00000-0  11682-4 0  9990,2 54785  53.2190 281.0335 0001723 121.2951 238.8210 15.08834276 61912,6917.898,95.438,540.955,538.571,0.0
54785.0,STARLINK-5440,PAYLOAD,2024-01-13 00:43:20,15.08838638,0.0001322,53.2173,280.444,107.9526,252.1611,3.7821e-05,3.14e-06,0.0,0 STARLINK-5440,1 54785U 22175AD  24013.03010261  .00000314  00000-0  37821-4 0  9992,2 54785  53.2173 280.4440 0001322 107.9526 252.1611 15.08838638 59778,6917.885,95.438,540.664,538.835,0.0
54785.0,STARLINK-5440,PAYLOAD,2024-01-14 03:44:53,15.08848292,0.00013,53.216,275.3894,103.6494,256.4643,0.00012689,1.733e-05,0.0,0 STARLINK-5440,1 54785U 22175AD  24014.15618047  .00001733  00000-0  12689-3 0  9992,2 54785  53.2160 275.3894 0001300 103.6494 256.4643 15.08848292 59941,6917.855,95.437,540.619,538.821,0.0
54785.0,STARLINK-5440,PAYLOAD,2024-01-14 22:49:30,15.08884595,0.0001345,53.2152,271.8182,125.4878,234.6239,-0.001082,-0.00017488,0.0,0 STARLINK-5440,1 54785U 22175AD  24014.95104296 -.00017488  00000-0 -10820-2 0  9996,2 54785  53.2152 271.8182 0001345 125.4878 234.6239 15.08884595 62220,6917.744,95.435,540.54,538.679,0.0
54785.0,STARLINK-5440,PAYLOAD,2024-01-15 00:24:55,15.08844443,0.0001672,53.2161,271.5248,65.6554,294.4612,0.00016475,2.335e-05,0.0,0 STARLINK-5440,1 54785U 22175AD  24015.01730602  .00002335  00000-0  16475-3 0  9996,2 54785  53.2161 271.5248 0001672  65.6554 294.4612 15.08844443 60077,6917.867,95.437,540.888,538.575,0.0
54785.0,STARLINK-5440,PAYLOAD,2024-01-15 03:35:41,15.08850688,0.0001529,53.2167,270.9272,90.407,269.7097,0.00024085,3.548e-05,0.0,0 STARLINK-5440,1 54785U 22175AD  24015.14978119  .00003548  00000-0  24085-3 0  9990,2 54785  53.2167 270.9272 0001529  90.4070 269.7097 15.08850688 60095,6917.848,95.437,540.77,538.655,0.0
54785.0,STARLINK-5440,PAYLOAD,2024-01-15 21:04:55,15.08847614,0.0002007,53.2157,267.6536,135.7444,224.3709,-9.635e-05,-1.822e-05,0.0,0 STARLINK-5440,1 54785U 22175AD  24015.87841904 -.00001822  00000-0 -96350-4 0  9991,2 54785  53.2157 267.6536 0002007 135.7444 224.3709 15.08847614 62364,6917.857,95.437,541.111,538.334,0.0
54785.0,STARLINK-5440,PAYLOAD,2024-01-16 01:51:04,15.08850492,0.000158,53.2169,266.7605,115.2686,244.847,-0.00010561,-1.969e-05,0.0,0 STARLINK-5440,1 54785U 22175AD  24016.07713817 -.00001969  00000-0 -10561-3 0  9996,2 54785  53.2169 266.7605 0001580 115.2686 244.8470 15.08850492 60234,6917.848,95.437,540.806,538.62,0.0
54785.0,STARLINK-5440,PAYLOAD,2024-01-16 16:09:33,15.08837265,0.0001387,53.2158,264.0897,103.1184,256.9963,4.9419e-05,4.99e-06,0.0,0 STARLINK-5440,1 54785U 22175AD  24016.67330675  .00000499  00000-0  49419-4 0  9999,2 54785  53.2158 264.0897 0001387 103.1184 256.9963 15.08837265 60324,6917.889,95.438,540.713,538.794,0.0
54785.0,STARLINK-5440,PAYLOAD,2024-01-16 22:31:05,15.08844777,0.0001458,53.2153,262.9021,102.2991,257.8164,-1.9512e-05,-5.99e-06,0.0,0 STARLINK-5440,1 54785U 22175AD  24016.93826237 -.00000599  00000-0 -19512-4 0  9996,2 54785  53.2153 262.9021 0001458 102.2991 257.8164 15.08844777 62523,6917.866,95.437,540.739,538.722,0.0
54785.0,STARLINK-5440,PAYLOAD,2024-01-17 00:06:28,15.08846817,0.000152,53.2162,262.6052,97.9712,262.1453,2.3239e-05,8.2e-07,0.0,0 STARLINK-5440,1 54785U 22175AD  24017.00450169  .00000082  00000-0  23239-4 0  9998,2 54785  53.2162 262.6052 0001520  97.9712 262.1453 15.08846817 60373,6917.86,95.437,540.776,538.673,0.0
54785.0,STARLINK-5440,PAYLOAD,2024-01-17 19:11:07,15.08837034,0.0001587,53.2148,259.0364,85.1743,274.943,6.7667e-05,7.89e-06,0.0,0 STARLINK-5440,1 54785U 22175AD  24017.79939074  .00000789  00000-0  67667-4 0  9998,2 54785  53.2148 259.0364 0001587  85.1743 274.9430 15.08837034 60499,6917.889,95.438,540.852,538.657,0.0
54785.0,STARLINK-5440,PAYLOAD,2024-01-17 22:21:53,15.08842895,0.0001407,53.2161,258.4381,104.4799,255.6349,0.0001016,1.33e-05,0.0,0 STARLINK-5440,1 54785U 22175AD  24017.93186568  .00001330  00000-0  10160-3 0  9994,2 54785  53.2161 258.4381 0001407 104.4799 255.6349 15.08842895 62671,6917.872,95.437,540.71,538.763,0.0
54785.0,STARLINK-5440,PAYLOAD,2024-01-18 01:32:39,15.08842838,0.000148,53.2147,257.845,112.8318,247.2831,0.00013043,1.789e-05,0.0,0 STARLINK-5440,1 54785U 22175AD  24018.06434580  .00001789  00000-0  13043-3 0  9990,2 54785  53.2147 257.8450 0001480 112.8318 247.2831 15.08842838 60539,6917.872,95.437,540.761,538.713,0.0
54785.0,STARLINK-5440,PAYLOAD,2024-01-18 22:12:40,15.08844414,0.0001416,53.2156,253.9777,101.4967,258.6184,7.6775e-05,9.34e-06,0.0,0 STARLINK-5440,1 54785U 22175AD  24018.92546680  .00000934  00000-0  76775-4 0  9993,2 54785  53.2156 253.9777 0001416 101.4967 258.6184 15.08844414 62824,6917.867,95.437,540.711,538.752,0.0
54785.0,STARLINK-5440,PAYLOAD,2024-01-19 01:23:26,15.08845815,0.0001438,53.2158,253.3823,106.6529,253.4621,0.00011273,1.507e-05,0.0,0 STARLINK-5440,1 54785U 22175AD  24019.05794576  .00001507  00000-0  11273-3 0  9995,2 54785  53.2158 253.3823 0001438 106.6529 253.4621 15.08845815 62844,6917.863,95.437,540.722,538.733,0.0
54785.0,STARLINK-5440,PAYLOAD,2024-01-19 18:52:41,15.08840341,0.0001457,53.2159,250.1102,107.9508,252.1643,3.7073e-05,3.02e-06,0.0,0 STARLINK-5440,1 54785U 22175AD  24019.78658956  .00000302  00000-0  37073-4 0  9995,2 54785  53.2159 250.1102 0001457 107.9508 252.1643 15.08840341 60793,6917.879,95.438,540.752,538.736,0.0
54785.0,STARLINK-5440,PAYLOAD,2024-01-19 22:03:27,15.08837488,0.0001561,53.2163,249.515,96.3428,263.7742,0.00017625,2.518e-05,0.0,0 STARLINK-5440,1 54785U 22175AD  24019.91907157  .00002518  00000-0  17625-3 0  9991,2 54785  53.2163 249.5150 0001561  96.3428 263.7742 15.08837488 62979,6917.888,95.438,540.833,538.673,0.0
